{
  "type": "FeatureCollection",
  "features": [
    {
      "type": "Feature",
      "properties": {
        "norad_id": 29770,
        "name": "FENGYUN 1C DEB",
        "group": "fengyun-1c-debris",
        "lat": 73.70451984658295,
        "lon": -79.03005080430691,
        "alt_km": 856.7528705751402,
        "timestamp": "2025-12-19T04:59:48.577219+00:00",
        "meta_object_name": "FENGYUN 1C DEB",
        "meta_object_id": "1999-025BL",
        "meta_epoch": "2025-12-18T17:17:31.518816",
        "meta_mean_motion": 14.20150922,
        "meta_eccentricity": 0.00633395,
        "meta_inclination": 98.8466,
        "meta_ra_of_asc_node": 68.2912,
        "meta_arg_of_pericenter": 254.0254,
        "meta_mean_anomaly": 238.0855,
        "meta_ephemeris_type": 0,
        "meta_classification_type": "U",
        "meta_norad_cat_id": 29770,
        "meta_element_set_no": 999,
        "meta_rev_at_epoch": 97171,
        "meta_bstar": 0.0010917695,
        "meta_mean_motion_dot": 2.331e-05,
        "meta_mean_motion_ddot": 0,
        "tle_line1": "1 29770U 99025BL  25352.72050369  .00002331  00000+0  10918-2 0  9998",
        "tle_line2": "2 29770  98.8466  68.2912 0063339 254.0254 238.0855 14.20150922971714"
      },
      "geometry": {
        "type": "Point",
        "coordinates": [
          -79.03005080430691,
          73.70451984658295
        ]
      }
    },
    {
      "type": "Feature",
      "properties": {
        "norad_id": 29772,
        "name": "FENGYUN 1C DEB",
        "group": "fengyun-1c-debris",
        "lat": -8.408406587416941,
        "lon": -156.84440747198497,
        "alt_km": 866.8467594286094,
        "timestamp": "2025-12-19T04:59:48.577229+00:00",
        "meta_object_name": "FENGYUN 1C DEB",
        "meta_object_id": "1999-025BN",
        "meta_epoch": "2025-12-17T20:35:52.099296",
        "meta_mean_motion": 14.03229234,
        "meta_eccentricity": 0.01377936,
        "meta_inclination": 98.3866,
        "meta_ra_of_asc_node": 200.6611,
        "meta_arg_of_pericenter": 276.0163,
        "meta_mean_anomaly": 98.373,
        "meta_ephemeris_type": 0,
        "meta_classification_type": "U",
        "meta_norad_cat_id": 29772,
        "meta_element_set_no": 999,
        "meta_rev_at_epoch": 96327,
        "meta_bstar": 0.00087765197,
        "meta_mean_motion_dot": 1.448e-05,
        "meta_mean_motion_ddot": 0,
        "tle_line1": "1 29772U 99025BN  25351.85824189  .00001448  00000+0  87765-3 0  9995",
        "tle_line2": "2 29772  98.3866 200.6611 0137793 276.0163  98.3730 14.03229234963277"
      },
      "geometry": {
        "type": "Point",
        "coordinates": [
          -156.84440747198497,
          -8.408406587416941
        ]
      }
    },
    {
      "type": "Feature",
      "properties": {
        "norad_id": 29773,
        "name": "FENGYUN 1C DEB",
        "group": "fengyun-1c-debris",
        "lat": -62.38150017311859,
        "lon": -50.613761670473295,
        "alt_km": 777.5163997225682,
        "timestamp": "2025-12-19T04:59:48.577239+00:00",
        "meta_object_name": "FENGYUN 1C DEB",
        "meta_object_id": "1999-025BP",
        "meta_epoch": "2025-12-18T16:08:57.085152",
        "meta_mean_motion": 14.27580936,
        "meta_eccentricity": 0.00464058,
        "meta_inclination": 98.9875,
        "meta_ra_of_asc_node": 146.4432,
        "meta_arg_of_pericenter": 273.2603,
        "meta_mean_anomaly": 101.1,
        "meta_ephemeris_type": 0,
        "meta_classification_type": "U",
        "meta_norad_cat_id": 29773,
        "meta_element_set_no": 999,
        "meta_rev_at_epoch": 98282,
        "meta_bstar": 0.00029427504,
        "meta_mean_motion_dot": 6.85e-06,
        "meta_mean_motion_ddot": 0,
        "tle_line1": "1 29773U 99025BP  25352.67288293  .00000685  00000+0  29428-3 0  9991",
        "tle_line2": "2 29773  98.9875 146.4432 0046405 273.2603 101.1000 14.27580936982829"
      },
      "geometry": {
        "type": "Point",
        "coordinates": [
          -50.613761670473295,
          -62.38150017311859
        ]
      }
    },
    {
      "type": "Feature",
      "properties": {
        "norad_id": 29774,
        "name": "FENGYUN 1C DEB",
        "group": "fengyun-1c-debris",
        "lat": 77.89134769431435,
        "lon": 161.90307123270185,
        "alt_km": 772.1575430223802,
        "timestamp": "2025-12-19T04:59:48.577250+00:00",
        "meta_object_name": "FENGYUN 1C DEB",
        "meta_object_id": "1999-025BQ",
        "meta_epoch": "2025-12-18T20:24:38.970720",
        "meta_mean_motion": 14.22737182,
        "meta_eccentricity": 0.00512741,
        "meta_inclination": 99.077,
        "meta_ra_of_asc_node": 293.3625,
        "meta_arg_of_pericenter": 106.0612,
        "meta_mean_anomaly": 320.717,
        "meta_ephemeris_type": 0,
        "meta_classification_type": "U",
        "meta_norad_cat_id": 29774,
        "meta_element_set_no": 999,
        "meta_rev_at_epoch": 98162,
        "meta_bstar": 0.00013511323,
        "meta_mean_motion_dot": 2.6e-06,
        "meta_mean_motion_ddot": 0,
        "tle_line1": "1 29774U 99025BQ  25352.85045105  .00000260  00000+0  13511-3 0  9990",
        "tle_line2": "2 29774  99.0770 293.3625 0051274 106.0612 320.7170 14.22737182981621"
      },
      "geometry": {
        "type": "Point",
        "coordinates": [
          161.90307123270185,
          77.89134769431435
        ]
      }
    },
    {
      "type": "Feature",
      "properties": {
        "norad_id": 29776,
        "name": "FENGYUN 1C DEB",
        "group": "fengyun-1c-debris",
        "lat": -2.8473497148085634,
        "lon": 20.21519147589781,
        "alt_km": 874.5956428638001,
        "timestamp": "2025-12-19T04:59:48.577260+00:00",
        "meta_object_name": "FENGYUN 1C DEB",
        "meta_object_id": "1999-025BS",
        "meta_epoch": "2025-12-18T14:15:12.909024",
        "meta_mean_motion": 14.07778995,
        "meta_eccentricity": 0.00228634,
        "meta_inclination": 98.7706,
        "meta_ra_of_asc_node": 19.1787,
        "meta_arg_of_pericenter": 253.5993,
        "meta_mean_anomaly": 231.831,
        "meta_ephemeris_type": 0,
        "meta_classification_type": "U",
        "meta_norad_cat_id": 29776,
        "meta_element_set_no": 999,
        "meta_rev_at_epoch": 97162,
        "meta_bstar": 0.00019726477,
        "meta_mean_motion_dot": 2.92e-06,
        "meta_mean_motion_ddot": 0,
        "tle_line1": "1 29776U 99025BS  25352.59389941  .00000292  00000+0  19726-3 0  9991",
        "tle_line2": "2 29776  98.7706  19.1787 0022863 253.5993 231.8310 14.07778995971620"
      },
      "geometry": {
        "type": "Point",
        "coordinates": [
          20.21519147589781,
          -2.8473497148085634
        ]
      }
    },
    {
      "type": "Feature",
      "properties": {
        "norad_id": 29777,
        "name": "FENGYUN 1C DEB",
        "group": "fengyun-1c-debris",
        "lat": 37.46476402714911,
        "lon": 42.87836970046379,
        "alt_km": 979.3613862545799,
        "timestamp": "2025-12-19T04:59:48.577270+00:00",
        "meta_object_name": "FENGYUN 1C DEB",
        "meta_object_id": "1999-025BT",
        "meta_epoch": "2025-12-18T17:19:38.075808",
        "meta_mean_motion": 13.92107034,
        "meta_eccentricity": 0.00929492,
        "meta_inclination": 99.2828,
        "meta_ra_of_asc_node": 49.5918,
        "meta_arg_of_pericenter": 193.5298,
        "meta_mean_anomaly": 289.592,
        "meta_ephemeris_type": 0,
        "meta_classification_type": "U",
        "meta_norad_cat_id": 29777,
        "meta_element_set_no": 999,
        "meta_rev_at_epoch": 96124,
        "meta_bstar": 3.8396643e-05,
        "meta_mean_motion_dot": 6e-08,
        "meta_mean_motion_ddot": 0,
        "tle_line1": "1 29777U 99025BT  25352.72196847  .00000006  00000+0  38397-4 0  9997",
        "tle_line2": "2 29777  99.2828  49.5918 0092949 193.5298 289.5920 13.92107034961245"
      },
      "geometry": {
        "type": "Point",
        "coordinates": [
          42.87836970046379,
          37.46476402714911
        ]
      }
    },
    {
      "type": "Feature",
      "properties": {
        "norad_id": 29779,
        "name": "FENGYUN 1C DEB",
        "group": "fengyun-1c-debris",
        "lat": 44.78245140648046,
        "lon": -167.03206800742336,
        "alt_km": 798.5205585346421,
        "timestamp": "2025-12-19T04:59:48.577281+00:00",
        "meta_object_name": "FENGYUN 1C DEB",
        "meta_object_id": "1999-025BV",
        "meta_epoch": "2025-12-18T23:16:01.926336",
        "meta_mean_motion": 14.13448228,
        "meta_eccentricity": 0.00637808,
        "meta_inclination": 98.6769,
        "meta_ra_of_asc_node": 4.0196,
        "meta_arg_of_pericenter": 146.5262,
        "meta_mean_anomaly": 213.9967,
        "meta_ephemeris_type": 0,
        "meta_classification_type": "U",
        "meta_norad_cat_id": 29779,
        "meta_element_set_no": 999,
        "meta_rev_at_epoch": 97500,
        "meta_bstar": 0.00019719423,
        "meta_mean_motion_dot": 3.36e-06,
        "meta_mean_motion_ddot": 0,
        "tle_line1": "1 29779U 99025BV  25352.96946674  .00000336  00000+0  19719-3 0  9998",
        "tle_line2": "2 29779  98.6769   4.0196 0063780 146.5262 213.9967 14.13448228975006"
      },
      "geometry": {
        "type": "Point",
        "coordinates": [
          -167.03206800742336,
          44.78245140648046
        ]
      }
    }
  ]
}